ONEWEB-0624             
1 55165U 23004AB  23251.58334491  .00000014  00000+0  00000+0 0  9994
2 55165  87.8292 191.9255 0001687 330.6446 243.1161 13.38191078  5453
ONEWEB-0625             
1 55166U 23004AC  23251.40769939  .00000080  00000+0  14182-3 0  9998
2 55166  87.9596 207.1427 0002723  82.6230 277.5218 13.30724355 34199
ONEWEB-0626             
1 55167U 23004AD  23251.34509812 -.00122581  00000+0 -26648+0 0  9993
2 55167  87.9676 207.1300 0003925  72.8390 287.3178 13.29947221 34193
ONEWEB-0627             
1 55168U 23004AE  23251.44559249  .00000972  00000+0  20279-2 0  9998
2 55168  87.9572 207.1397 0002700  45.9614 314.1747 13.30827561 34204
ONEWEB-0628             
1 55169U 23004AF  23251.58334491  .00000014  00000+0  00000+0 0  9998
2 55169  87.8401 192.0042 0006399 161.7930 319.9538 13.34081447  5321
ONEWEB-0629             
1 55170U 23004AG  23251.58334491  .00000013  00000+0  00000+0 0  9999
2 55170  87.9643 207.0854 0002995  95.1034  26.6724 13.28594340  5304
ONEWEB-0631             
1 55171U 23004AH  23251.58334491 -.00782240  00000+0 -18946+0 0  9999
2 55171  86.6950 185.1470 0003415 113.0175 109.7721 14.56010592  5636
ONEWEB-0709             
1 55172U 23004AJ  23251.51668179  .00000349  00000+0  94935-3 0  9993
2 55172  87.8942 222.2461 0002813  66.2485 293.8938 13.11413894 33142
